{
    "links": {
        "self": "http://www.neowsapp.com/rest/v1/neo/3632549?api_key=iIulBulltgU6a56xZRHN4H3l9WmuAYTsLGpBGhQ2"
    },
    "id": "3632549",
    "neo_reference_id": "3632549",
    "name": "(2013 EY89)",
    "designation": "2013 EY89",
    "nasa_jpl_url": "http://ssd.jpl.nasa.gov/sbdb.cgi?sstr=3632549",
    "absolute_magnitude_h": 25.4,
    "estimated_diameter": {
        "kilometers": {
            "estimated_diameter_min": 0.022108281,
            "estimated_diameter_max": 0.0494356193
        },
        "meters": {
            "estimated_diameter_min": 22.1082810359,
            "estimated_diameter_max": 49.435619262
        },
        "miles": {
            "estimated_diameter_min": 0.0137374447,
            "estimated_diameter_max": 0.0307178602
        },
        "feet": {
            "estimated_diameter_min": 72.5337327539,
            "estimated_diameter_max": 162.1903570994
        }
    },
    "is_potentially_hazardous_asteroid": false,
    "close_approach_data": [
        {
            "close_approach_date": "2013-03-02",
            "close_approach_date_full": "2013-Mar-02 22:25",
            "epoch_date_close_approach": 1362263100000,
            "relative_velocity": {
                "kilometers_per_second": "11.9347533937",
                "kilometers_per_hour": "42965.1122174431",
                "miles_per_hour": "26696.849866444"
            },
            "miss_distance": {
                "astronomical": "0.0264336031",
                "lunar": "10.2826716059",
                "kilometers": "3954410.720185397",
                "miles": "2457156.8816445986"
            },
            "orbiting_body": "Earth"
        },
        {
            "close_approach_date": "2130-10-23",
            "close_approach_date_full": "2130-Oct-23 15:05",
            "epoch_date_close_approach": 5074671900000,
            "relative_velocity": {
                "kilometers_per_second": "18.8434515011",
                "kilometers_per_hour": "67836.4254040694",
                "miles_per_hour": "42150.9166628786"
            },
            "miss_distance": {
                "astronomical": "0.241701057",
                "lunar": "94.021711173",
                "kilometers": "36157963.30394859",
                "miles": "22467516.564486942"
            },
            "orbiting_body": "Earth"
        }
    ],
    "orbital_data": {
        "orbit_id": "5",
        "orbit_determination_date": "2017-04-06 08:46:25",
        "first_observation_date": "2013-03-15",
        "last_observation_date": "2013-03-23",
        "data_arc_in_days": 8,
        "observations_used": 25,
        "orbit_uncertainty": "8",
        "minimum_orbit_intersection": ".0243774",
        "jupiter_tisserand_invariant": "4.031",
        "epoch_osculation": "2456367.5",
        "eccentricity": ".5119983469494996",
        "semi_major_axis": "1.704024305861884",
        "inclination": "6.003738954498052",
        "ascending_node_longitude": "356.2877212603166",
        "orbital_period": "812.4789250795831",
        "perihelion_distance": ".8315666780988309",
        "perihelion_argument": "107.43345935",
        "aphelion_distance": "2.576481933624937",
        "perihelion_time": "2456312.501003223336",
        "mean_anomaly": "24.36941836695597",
        "mean_motion": ".4430884160653615",
        "equinox": "J2000",
        "orbit_class": {
            "orbit_class_type": "APO",
            "orbit_class_description": "Near-Earth asteroid orbits which cross the Earth’s orbit similar to that of 1862 Apollo",
            "orbit_class_range": "a (semi-major axis) > 1.0 AU; q (perihelion) < 1.017 AU"
        }
    },
    "is_sentry_object": false
}